ONEWEB-0228             
1 48780U 21045P   23182.08206719 -.00000593  00000+0 -16099-2 0  9993
2 48780  87.9022 114.6704 0002040  73.1421 286.9933 13.15550930103189
